{
    "links": {
        "self": "http://www.neowsapp.com/rest/v1/neo/3474857?api_key=iIulBulltgU6a56xZRHN4H3l9WmuAYTsLGpBGhQ2"
    },
    "id": "3474857",
    "neo_reference_id": "3474857",
    "name": "(2009 VA)",
    "designation": "2009 VA",
    "nasa_jpl_url": "http://ssd.jpl.nasa.gov/sbdb.cgi?sstr=3474857",
    "absolute_magnitude_h": 28.6,
    "estimated_diameter": {
        "kilometers": {
            "estimated_diameter_min": 0.0050647146,
            "estimated_diameter_max": 0.0113250461
        },
        "meters": {
            "estimated_diameter_min": 5.0647145883,
            "estimated_diameter_max": 11.3250461062
        },
        "miles": {
            "estimated_diameter_min": 0.0031470668,
            "estimated_diameter_max": 0.0070370552
        },
        "feet": {
            "estimated_diameter_min": 16.61651821,
            "estimated_diameter_max": 37.155664267
        }
    },
    "is_potentially_hazardous_asteroid": false,
    "close_approach_data": [
        {
            "close_approach_date": "2009-11-06",
            "close_approach_date_full": "2009-Nov-06 19:24",
            "epoch_date_close_approach": 1257535440000,
            "relative_velocity": {
                "kilometers_per_second": "7.9350945914",
                "kilometers_per_hour": "28566.3405290403",
                "miles_per_hour": "17750.0130915028"
            },
            "miss_distance": {
                "astronomical": "0.0023827639",
                "lunar": "0.9268951571",
                "kilometers": "356456.404152893",
                "miles": "221491.7388322034"
            },
            "orbiting_body": "Moon"
        },
        {
            "close_approach_date": "2009-11-06",
            "close_approach_date_full": "2009-Nov-06 21:32",
            "epoch_date_close_approach": 1257543120000,
            "relative_velocity": {
                "kilometers_per_second": "10.3022094566",
                "kilometers_per_hour": "37087.9540438763",
                "miles_per_hour": "23045.0123335408"
            },
            "miss_distance": {
                "astronomical": "0.0001367389",
                "lunar": "0.0531914321",
                "kilometers": "20455.848186143",
                "miles": "12710.6746610534"
            },
            "orbiting_body": "Earth"
        }
    ],
    "orbital_data": {
        "orbit_id": "6",
        "orbit_determination_date": "2017-04-06 08:59:19",
        "first_observation_date": "2009-11-06",
        "last_observation_date": "2009-11-06",
        "data_arc_in_days": null,
        "observations_used": 10,
        "orbit_uncertainty": "9",
        "minimum_orbit_intersection": ".000130856",
        "jupiter_tisserand_invariant": "4.614",
        "epoch_osculation": "2455141.5",
        "eccentricity": ".357345541934577",
        "semi_major_axis": "1.427944669747726",
        "inclination": "7.540908298884526",
        "ascending_node_longitude": "224.5421293686616",
        "orbital_period": "623.2546054444533",
        "perihelion_distance": ".9176750078841341",
        "perihelion_argument": "223.9912220424059",
        "aphelion_distance": "1.938214331611318",
        "perihelion_time": "2455177.950266658073",
        "mean_anomaly": "338.9458499266946",
        "mean_motion": ".5776130603050706",
        "equinox": "J2000",
        "orbit_class": {
            "orbit_class_type": "APO",
            "orbit_class_description": "Near-Earth asteroid orbits which cross the Earth’s orbit similar to that of 1862 Apollo",
            "orbit_class_range": "a (semi-major axis) > 1.0 AU; q (perihelion) < 1.017 AU"
        }
    },
    "is_sentry_object": false
}